[{"OBJECT_NAME":"STARLINK-3864","OBJECT_ID":"2022-049T","EPOCH":"2026-03-09T09:14:51.760320","MEAN_MOTION":15.08831635,"ECCENTRICITY":0.00012627,"INCLINATION":53.2168,"RA_OF_ASC_NODE":60.4867,"ARG_OF_PERICENTER":86.5607,"MEAN_ANOMALY":273.553,"EPHEMERIS_TYPE":0,"CLASSIFICATION_TYPE":"U","NORAD_CAT_ID":52468,"ELEMENT_SET_NO":999,"REV_AT_EPOCH":21220,"BSTAR":-8.0014912e-5,"MEAN_MOTION_DOT":-1.561e-5,"MEAN_MOTION_DDOT":0},{"OBJECT_NAME":"CZ-2C R\/B","OBJECT_ID":"2026-021B","EPOCH":"2026-03-09T21:51:23.415552","MEAN_MOTION":15.24093237,"ECCENTRICITY":0.01506252,"INCLINATION":97.65,"RA_OF_ASC_NODE":144.3935,"ARG_OF_PERICENTER":10.4871,"MEAN_ANOMALY":349.9447,"EPHEMERIS_TYPE":0,"CLASSIFICATION_TYPE":"U","NORAD_CAT_ID":67647,"ELEMENT_SET_NO":999,"REV_AT_EPOCH":573,"BSTAR":0.00038397881,"MEAN_MOTION_DOT":0.00012809,"MEAN_MOTION_DDOT":0}]
